{"type": "FeatureCollection", "features": [ {"type": "Feature", "properties": {"norad_id": 40115, "name": "WORLDVIEW-3 (WV-3)", "group": "resource", "lat": 13.585893973429902, "lon": 52.28800001141306, "alt_km": 616.1651776252356, "timestamp": "2025-12-07T20:38:13.734589+00:00", "meta": {"OBJECT_NAME": "WORLDVIEW-3 (WV-3)", "OBJECT_ID": "2014-048A", "EPOCH": "2025-12-07T07:38:33.324000", "MEAN_MOTION": 14.85491335, "ECCENTRICITY": 0.00043716, "INCLINATION": 97.8619, "RA_OF_ASC_NODE": 53.667, "ARG_OF_PERICENTER": 203.2503, "MEAN_ANOMALY": 156.8515, "EPHEMERIS_TYPE": 0, "CLASSIFICATION_TYPE": "U", "NORAD_CAT_ID": 40115, "ELEMENT_SET_NO": 999, "REV_AT_EPOCH": 61343, "BSTAR": 0.00024395475, "MEAN_MOTION_DOT": 2.052e-05, "MEAN_MOTION_DDOT": 0}, "tle": {"line1": "1 40115U 14048A   25341.31844125  .00002052  00000+0  24395-3 0  9995", "line2": "2 40115  97.8619  53.6670 0004371 203.2503 156.8515 14.85491335613431"}}, "geometry": {"type": "Point", "coordinates": [52.28800001141306, 13.585893973429902]}}, {"type": "Feature", "properties": {"norad_id": 40118, "name": "GAOFEN-2", "group": "resource", "lat": -79.25742491428893, "lon": 89.17565703950302, "alt_km": 639.8936406680614, "timestamp": "2025-12-07T20:38:13.734599+00:00", "meta": {"OBJECT_NAME": "GAOFEN-2", "OBJECT_ID": "2014-049A", "EPOCH": "2025-12-07T06:24:49.990464", "MEAN_MOTION": 14.80593902, "ECCENTRICITY": 0.00083898, "INCLINATION": 98.0393, "RA_OF_ASC_NODE": 40.4261, "ARG_OF_PERICENTER": 128.7326, "MEAN_ANOMALY": 231.4637, "EPHEMERIS_TYPE": 0, "CLASSIFICATION_TYPE": "U", "NORAD_CAT_ID": 40118, "ELEMENT_SET_NO": 999, "REV_AT_EPOCH": 61083, "BSTAR": 0.00020913384, "MEAN_MOTION_DOT": 1.552e-05, "MEAN_MOTION_DDOT": 0}, "tle": {"line1": "1 40118U 14049A   25341.26724526  .00001552  00000+0  20913-3 0  9991", "line2": "2 40118  98.0393  40.4261 0008389 128.7326 231.4637 14.80593902610837"}}, "geometry": {"type": "Point", "coordinates": [89.17565703950302, -79.25742491428893]}}, {"type": "Feature", "properties": {"norad_id": 40143, "name": "YAOGAN-21", "group": "resource", "lat": -26.036825501035235, "lon": -158.14384135833492, "alt_km": 506.75633245532117, "timestamp": "2025-12-07T20:38:13.734609+00:00", "meta": {"OBJECT_NAME": "YAOGAN-21", "OBJECT_ID": "2014-053A", "EPOCH": "2025-12-07T07:07:32.923776", "MEAN_MOTION": 15.23580161, "ECCENTRICITY": 0.00100623, "INCLINATION": 97.1758, "RA_OF_ASC_NODE": 24.8464, "ARG_OF_PERICENTER": 58.4978, "MEAN_ANOMALY": 301.7242, "EPHEMERIS_TYPE": 0, "CLASSIFICATION_TYPE": "U", "NORAD_CAT_ID": 40143, "ELEMENT_SET_NO": 999, "REV_AT_EPOCH": 62571, "BSTAR": 0.00040735651, "MEAN_MOTION_DOT": 9.695e-05, "MEAN_MOTION_DDOT": 0}, "tle": {"line1": "1 40143U 14053A   25341.29690884  .00009695  00000+0  40736-3 0  9997", "line2": "2 40143  97.1758  24.8464 0010062  58.4978 301.7242 15.23580161625711"}}, "geometry": {"type": "Point", "coordinates": [-158.14384135833492, -26.036825501035235]}}, {"type": "Feature", "properties": {"norad_id": 40275, "name": "YAOGAN-22", "group": "resource", "lat": 79.22401492865312, "lon": 31.026095785973784, "alt_km": 1198.8297629367353, "timestamp": "2025-12-07T20:38:13.734619+00:00", "meta": {"OBJECT_NAME": "YAOGAN-22", "OBJECT_ID": "2014-063A", "EPOCH": "2025-12-07T03:44:59.667360", "MEAN_MOTION": 13.15522422, "ECCENTRICITY": 0.00059138, "INCLINATION": 100.7419, "RA_OF_ASC_NODE": 124.4969, "ARG_OF_PERICENTER": 261.7419, "MEAN_ANOMALY": 98.3022, "EPHEMERIS_TYPE": 0, "CLASSIFICATION_TYPE": "U", "NORAD_CAT_ID": 40275, "ELEMENT_SET_NO": 999, "REV_AT_EPOCH": 53456, "BSTAR": 3.5732529e-05, "MEAN_MOTION_DOT": -3.3e-07, "MEAN_MOTION_DDOT": 0}, "tle": {"line1": "1 40275U 14063A   25341.15624615 -.00000033  00000+0  35733-4 0  9998", "line2": "2 40275 100.7419 124.4969 0005913 261.7419  98.3022 13.15522422534569"}}, "geometry": {"type": "Point", "coordinates": [31.026095785973784, 79.22401492865312]}}, {"type": "Feature", "properties": {"norad_id": 40298, "name": "ASNARO", "group": "resource", "lat": -31.985932647609356, "lon": 62.560548837784395, "alt_km": 517.584189340806, "timestamp": "2025-12-07T20:38:13.734629+00:00", "meta": {"OBJECT_NAME": "ASNARO", "OBJECT_ID": "2014-070A", "EPOCH": "2025-12-07T06:33:11.651328", "MEAN_MOTION": 15.19324815, "ECCENTRICITY": 0.00053608, "INCLINATION": 97.3659, "RA_OF_ASC_NODE": 57.3542, "ARG_OF_PERICENTER": 137.1465, "MEAN_ANOMALY": 223.0188, "EPHEMERIS_TYPE": 0, "CLASSIFICATION_TYPE": "U", "NORAD_CAT_ID": 40298, "ELEMENT_SET_NO": 999, "REV_AT_EPOCH": 61486, "BSTAR": 0.00075991586, "MEAN_MOTION_DOT": 0.00016012, "MEAN_MOTION_DDOT": 0}, "tle": {"line1": "1 40298U 14070A   25341.27305152  .00016012  00000+0  75992-3 0  9999", "line2": "2 40298  97.3659  57.3542 0005360 137.1465 223.0188 15.19324815614869"}}, "geometry": {"type": "Point", "coordinates": [62.560548837784395, -31.985932647609356]}}, {"type": "Feature", "properties": {"norad_id": 40310, "name": "YAOGAN-24", "group": "resource", "lat": -21.34913942144667, "lon": 116.12736843617004, "alt_km": 656.9065608757273, "timestamp": "2025-12-07T20:38:13.734639+00:00", "meta": {"OBJECT_NAME": "YAOGAN-24", "OBJECT_ID": "2014-072A", "EPOCH": "2025-12-07T07:43:13.284192", "MEAN_MOTION": 14.76159871, "ECCENTRICITY": 0.00144847, "INCLINATION": 98.1224, "RA_OF_ASC_NODE": 112.3864, "ARG_OF_PERICENTER": 154.7933, "MEAN_ANOMALY": 205.3986, "EPHEMERIS_TYPE": 0, "CLASSIFICATION_TYPE": "U", "NORAD_CAT_ID": 40310, "ELEMENT_SET_NO": 999, "REV_AT_EPOCH": 59541, "BSTAR": 0.00028422582, "MEAN_MOTION_DOT": 1.915e-05, "MEAN_MOTION_DDOT": 0}, "tle": {"line1": "1 40310U 14072A   25341.32168153  .00001915  00000+0  28423-3 0  9993", "line2": "2 40310  98.1224 112.3864 0014484 154.7933 205.3986 14.76159871595410"}}, "geometry": {"type": "Point", "coordinates": [116.12736843617004, -21.34913942144667]}}, {"type": "Feature", "properties": {"norad_id": 40336, "name": "CBERS 4", "group": "resource", "lat": 70.33521644437074, "lon": 15.83372314330337, "alt_km": 765.7843782672553, "timestamp": "2025-12-07T20:38:13.734649+00:00", "meta": {"OBJECT_NAME": "CBERS 4", "OBJECT_ID": "2014-079A", "EPOCH": "2025-12-07T06:55:10.838496", "MEAN_MOTION": 14.35514708, "ECCENTRICITY": 0.00015222, "INCLINATION": 98.3318, "RA_OF_ASC_NODE": 39.4916, "ARG_OF_PERICENTER": 120.5397, "MEAN_ANOMALY": 239.594, "EPHEMERIS_TYPE": 0, "CLASSIFICATION_TYPE": "U", "NORAD_CAT_ID": 40336, "ELEMENT_SET_NO": 999, "REV_AT_EPOCH": 57642, "BSTAR": 0.00012084077, "MEAN_MOTION_DOT": 3.06e-06, "MEAN_MOTION_DDOT": 0}, "tle": {"line1": "1 40336U 14079A   25341.28831989  .00000306  00000+0  12084-3 0  9996", "line2": "2 40336  98.3318  39.4916 0001522 120.5397 239.5940 14.35514708576423"}}, "geometry": {"type": "Point", "coordinates": [15.83372314330337, 70.33521644437074]}}, {"type": "Feature", "properties": {"norad_id": 40362, "name": "YAOGAN-26", "group": "resource", "lat": 8.21590175098867, "lon": -18.317846007696986, "alt_km": 447.07609395426516, "timestamp": "2025-12-07T20:38:13.734659+00:00", "meta": {"OBJECT_NAME": "YAOGAN-26", "OBJECT_ID": "2014-088A", "EPOCH": "2025-12-07T06:33:26.360928", "MEAN_MOTION": 15.39015344, "ECCENTRICITY": 0.00068372, "INCLINATION": 97.0641, "RA_OF_ASC_NODE": 342.1425, "ARG_OF_PERICENTER": 45.2571, "MEAN_ANOMALY": 314.9231, "EPHEMERIS_TYPE": 0, "CLASSIFICATION_TYPE": "U", "NORAD_CAT_ID": 40362, "ELEMENT_SET_NO": 999, "REV_AT_EPOCH": 60810, "BSTAR": 0.00069754425, "MEAN_MOTION_DOT": 0.0002695, "MEAN_MOTION_DDOT": 0}, "tle": {"line1": "1 40362U 14088A   25341.27322177  .00026950  00000+0  69754-3 0  9997", "line2": "2 40362  97.0641 342.1425 0006837  45.2571 314.9231 15.39015344608106"}}, "geometry": {"type": "Point", "coordinates": [-18.317846007696986, 8.21590175098867]}}, {"type": "Feature", "properties": {"norad_id": 40376, "name": "SMAP", "group": "resource", "lat": 32.58482921768647, "lon": 171.8956125473201, "alt_km": 680.0689732661886, "timestamp": "2025-12-07T20:38:13.734670+00:00", "meta": {"OBJECT_NAME": "SMAP", "OBJECT_ID": "2015-003A", "EPOCH": "2025-12-07T06:50:21.890112", "MEAN_MOTION": 14.63334482, "ECCENTRICITY": 0.0001212, "INCLINATION": 98.129, "RA_OF_ASC_NODE": 346.0874, "ARG_OF_PERICENTER": 87.7132, "MEAN_ANOMALY": 272.4209, "EPHEMERIS_TYPE": 0, "CLASSIFICATION_TYPE": "U", "NORAD_CAT_ID": 40376, "ELEMENT_SET_NO": 999, "REV_AT_EPOCH": 57955, "BSTAR": 0.00021585885, "MEAN_MOTION_DOT": 1.068e-05, "MEAN_MOTION_DDOT": 0}, "tle": {"line1": "1 40376U 15003A   25341.28497558  .00001068  00000+0  21586-3 0  9991", "line2": "2 40376  98.1290 346.0874 0001212  87.7132 272.4209 14.63334482579552"}}, "geometry": {"type": "Point", "coordinates": [171.8956125473201, 32.58482921768647]}}, {"type": "Feature", "properties": {"norad_id": 40536, "name": "KOMPSAT-3A", "group": "resource", "lat": -46.85762066789944, "lon": 127.66013248146554, "alt_km": 442.13944921879465, "timestamp": "2025-12-07T20:38:13.734679+00:00", "meta": {"OBJECT_NAME": "KOMPSAT-3A", "OBJECT_ID": "2015-014A", "EPOCH": "2025-12-07T05:39:14.264064", "MEAN_MOTION": 15.43652195, "ECCENTRICITY": 0.00043007, "INCLINATION": 97.6785, "RA_OF_ASC_NODE": 315.2789, "ARG_OF_PERICENTER": 138.5802, "MEAN_ANOMALY": 221.5772, "EPHEMERIS_TYPE": 0, "CLASSIFICATION_TYPE": "U", "NORAD_CAT_ID": 40536, "ELEMENT_SET_NO": 999, "REV_AT_EPOCH": 59210, "BSTAR": 0.00063102359, "MEAN_MOTION_DOT": 0.00028408, "MEAN_MOTION_DDOT": 0}, "tle": {"line1": "1 40536U 15014A   25341.23558176  .00028408  00000+0  63102-3 0  9997", "line2": "2 40536  97.6785 315.2789 0004300 138.5802 221.5772 15.43652195592105"}}, "geometry": {"type": "Point", "coordinates": [127.66013248146554, -46.85762066789944]}}]}